[{"OBJECT_NAME":"LEMUR-2-TARTIFLETTE","OBJECT_ID":"2025-276DZ","EPOCH":"2026-04-27T02:14:04.369632","MEAN_MOTION":14.98393671,"ECCENTRICITY":0.0011707,"INCLINATION":97.5296,"RA_OF_ASC_NODE":189.4997,"ARG_OF_PERICENTER":316.8156,"MEAN_ANOMALY":43.2148,"EPHEMERIS_TYPE":0,"CLASSIFICATION_TYPE":"U","NORAD_CAT_ID":66784,"ELEMENT_SET_NO":999,"REV_AT_EPOCH":2254,"BSTAR":0.00064639,"MEAN_MOTION_DOT":7.668e-5,"MEAN_MOTION_DDOT":0},{"OBJECT_NAME":"LEMUR-2-VUKASIN","OBJECT_ID":"2025-276EA","EPOCH":"2026-04-27T04:45:28.291104","MEAN_MOTION":14.99708098,"ECCENTRICITY":0.0006079,"INCLINATION":97.5241,"RA_OF_ASC_NODE":189.7914,"ARG_OF_PERICENTER":301.755,"MEAN_ANOMALY":58.3081,"EPHEMERIS_TYPE":0,"CLASSIFICATION_TYPE":"U","NORAD_CAT_ID":66785,"ELEMENT_SET_NO":999,"REV_AT_EPOCH":2250,"BSTAR":0.00073892,"MEAN_MOTION_DOT":9.072e-5,"MEAN_MOTION_DDOT":0},{"OBJECT_NAME":"LEMUR-2-HOTSPUR-TOM","OBJECT_ID":"2025-276EB","EPOCH":"2026-04-27T03:35:32.891136","MEAN_MOTION":14.98374686,"ECCENTRICITY":0.0011977,"INCLINATION":97.5267,"RA_OF_ASC_NODE":189.5507,"ARG_OF_PERICENTER":309.4793,"MEAN_ANOMALY":50.537,"EPHEMERIS_TYPE":0,"CLASSIFICATION_TYPE":"U","NORAD_CAT_ID":66786,"ELEMENT_SET_NO":999,"REV_AT_EPOCH":2248,"BSTAR":0.00067772,"MEAN_MOTION_DOT":8.039e-5,"MEAN_MOTION_DDOT":0},{"OBJECT_NAME":"LEMUR-2-MYRA","OBJECT_ID":"2025-276EC","EPOCH":"2026-04-27T02:13:22.107936","MEAN_MOTION":14.99669939,"ECCENTRICITY":0.0010975,"INCLINATION":97.5312,"RA_OF_ASC_NODE":189.6492,"ARG_OF_PERICENTER":322.5053,"MEAN_ANOMALY":37.5404,"EPHEMERIS_TYPE":0,"CLASSIFICATION_TYPE":"U","NORAD_CAT_ID":66787,"ELEMENT_SET_NO":999,"REV_AT_EPOCH":2255,"BSTAR":0.00049294,"MEAN_MOTION_DOT":6.029e-5,"MEAN_MOTION_DDOT":0},{"OBJECT_NAME":"LEMUR-2 FIKRETDENGIZ","OBJECT_ID":"2026-004A","EPOCH":"2026-04-26T23:09:14.640192","MEAN_MOTION":14.87926386,"ECCENTRICITY":0.000749,"INCLINATION":97.8019,"RA_OF_ASC_NODE":116.3273,"ARG_OF_PERICENTER":318.4152,"MEAN_ANOMALY":41.6494,"EPHEMERIS_TYPE":0,"CLASSIFICATION_TYPE":"U","NORAD_CAT_ID":67363,"ELEMENT_SET_NO":999,"REV_AT_EPOCH":1566,"BSTAR":0.00054463,"MEAN_MOTION_DOT":4.939e-5,"MEAN_MOTION_DDOT":0},{"OBJECT_NAME":"LEMUR-2-CALLUM-K-J","OBJECT_ID":"2026-004B","EPOCH":"2026-04-26T23:18:47.526624","MEAN_MOTION":14.87521913,"ECCENTRICITY":0.0007271,"INCLINATION":97.8064,"RA_OF_ASC_NODE":116.3628,"ARG_OF_PERICENTER":304.9124,"MEAN_ANOMALY":55.1408,"EPHEMERIS_TYPE":0,"CLASSIFICATION_TYPE":"U","NORAD_CAT_ID":67364,"ELEMENT_SET_NO":999,"REV_AT_EPOCH":1567,"BSTAR":0.00021297,"MEAN_MOTION_DOT":1.878e-5,"MEAN_MOTION_DDOT":0},{"OBJECT_NAME":"LEMUR-2-MARIO-SOUSA","OBJECT_ID":"2026-004C","EPOCH":"2026-04-26T22:54:03.669696","MEAN_MOTION":14.88086898,"ECCENTRICITY":0.0007054,"INCLINATION":97.7998,"RA_OF_ASC_NODE":116.3153,"ARG_OF_PERICENTER":320.1963,"MEAN_ANOMALY":39.8735,"EPHEMERIS_TYPE":0,"CLASSIFICATION_TYPE":"U","NORAD_CAT_ID":67365,"ELEMENT_SET_NO":999,"REV_AT_EPOCH":1567,"BSTAR":0.00059736,"MEAN_MOTION_DOT":5.444e-5,"MEAN_MOTION_DDOT":0},{"OBJECT_NAME":"LEMUR-2-SONNENBLUME","OBJECT_ID":"2026-004E","EPOCH":"2026-04-26T22:45:50.408640","MEAN_MOTION":14.88046259,"ECCENTRICITY":0.0006858,"INCLINATION":97.799,"RA_OF_ASC_NODE":116.3085,"ARG_OF_PERICENTER":322.0168,"MEAN_ANOMALY":38.0565,"EPHEMERIS_TYPE":0,"CLASSIFICATION_TYPE":"U","NORAD_CAT_ID":67367,"ELEMENT_SET_NO":999,"REV_AT_EPOCH":1567,"BSTAR":0.0003935,"MEAN_MOTION_DOT":3.563e-5,"MEAN_MOTION_DDOT":0},{"OBJECT_NAME":"LEMUR-2-WOBLER","OBJECT_ID":"2026-004F","EPOCH":"2026-04-26T22:43:38.074080","MEAN_MOTION":14.88128387,"ECCENTRICITY":0.0006523,"INCLINATION":97.8047,"RA_OF_ASC_NODE":116.3814,"ARG_OF_PERICENTER":310.0048,"MEAN_ANOMALY":50.0595,"EPHEMERIS_TYPE":0,"CLASSIFICATION_TYPE":"U","NORAD_CAT_ID":67368,"ELEMENT_SET_NO":999,"REV_AT_EPOCH":1567,"BSTAR":0.00056432,"MEAN_MOTION_DOT":5.144e-5,"MEAN_MOTION_DDOT":0},{"OBJECT_NAME":"LEMUR-2-GRAM-E-SUE","OBJECT_ID":"2026-004H","EPOCH":"2026-04-27T00:08:21.098400","MEAN_MOTION":14.8822071,"ECCENTRICITY":0.0005939,"INCLINATION":97.7978,"RA_OF_ASC_NODE":116.3748,"ARG_OF_PERICENTER":326.6969,"MEAN_ANOMALY":33.3874,"EPHEMERIS_TYPE":0,"CLASSIFICATION_TYPE":"U","NORAD_CAT_ID":67370,"ELEMENT_SET_NO":999,"REV_AT_EPOCH":1568,"BSTAR":0.00059449,"MEAN_MOTION_DOT":5.435e-5,"MEAN_MOTION_DDOT":0},{"OBJECT_NAME":"LEMUR-2-KATIE","OBJECT_ID":"2026-004AA","EPOCH":"2026-04-26T23:28:22.109952","MEAN_MOTION":14.89701793,"ECCENTRICITY":0.0001293,"INCLINATION":97.804,"RA_OF_ASC_NODE":116.645,"ARG_OF_PERICENTER":251.1639,"MEAN_ANOMALY":108.9439,"EPHEMERIS_TYPE":0,"CLASSIFICATION_TYPE":"U","NORAD_CAT_ID":67387,"ELEMENT_SET_NO":999,"REV_AT_EPOCH":1568,"BSTAR":0.00047789,"MEAN_MOTION_DOT":4.52e-5,"MEAN_MOTION_DDOT":0},{"OBJECT_NAME":"LEMUR-2-HCS-BAZUS","OBJECT_ID":"2026-004AB","EPOCH":"2026-04-26T23:24:53.224992","MEAN_MOTION":14.8959833,"ECCENTRICITY":9.24e-5,"INCLINATION":97.8031,"RA_OF_ASC_NODE":116.6344,"ARG_OF_PERICENTER":225.9713,"MEAN_ANOMALY":134.1429,"EPHEMERIS_TYPE":0,"CLASSIFICATION_TYPE":"U","NORAD_CAT_ID":67388,"ELEMENT_SET_NO":999,"REV_AT_EPOCH":1568,"BSTAR":0.00052527,"MEAN_MOTION_DOT":4.961e-5,"MEAN_MOTION_DDOT":0}]
